NANOSATC-BR1            
1 40024U 14033Q   26068.98267556  .00020336  00000+0  74295-3 0  9994
2 40024  98.0845  92.7804 0004644 147.6715 212.4808 15.28136801638811
STARLINK-32509          
1 62042U 24216L   26068.94051766  .00027146  00000+0  99152-3 0  9997
2 62042  43.0015 254.9348 0002267 263.1184  96.9410 15.27606457 73918
